{
  "type": "FeatureCollection",
  "features": [
    {
      "type": "Feature",
      "properties": {
        "norad_id": 27954,
        "name": "GALAXY 13 (HORIZONS-1)",
        "group": "intelsat",
        "lat": -0.433705299697944,
        "lon": 58.38311117243635,
        "alt_km": 35795.06567786555,
        "timestamp": "2025-12-23T07:45:09.064118+00:00",
        "meta_object_name": "GALAXY 13 (HORIZONS-1)",
        "meta_object_id": "2003-044A",
        "meta_epoch": "2025-12-22T17:35:14.017632",
        "meta_mean_motion": 1.00270802,
        "meta_eccentricity": 0.00023589,
        "meta_inclination": 0.9625,
        "meta_ra_of_asc_node": 86.3388,
        "meta_arg_of_pericenter": 181.1496,
        "meta_mean_anomaly": 297.8246,
        "meta_ephemeris_type": 0,
        "meta_classification_type": "U",
        "meta_norad_cat_id": 27954,
        "meta_element_set_no": 999,
        "meta_rev_at_epoch": 4480,
        "meta_bstar": 0,
        "meta_mean_motion_dot": 1.54e-06,
        "meta_mean_motion_ddot": 0,
        "tle_line1": "1 27954U 03044A   25356.73280113  .00000154  00000+0  00000+0 0  9992",
        "tle_line2": "2 27954   0.9625  86.3388 0002358 181.1496 297.8246  1.00270802 44809"
      },
      "geometry": {
        "type": "Point",
        "coordinates": [
          58.38311117243635,
          -0.433705299697944
        ]
      }
    },
    {
      "type": "Feature",
      "properties": {
        "norad_id": 28358,
        "name": "INTELSAT 10-02",
        "group": "intelsat",
        "lat": 0.00550330151139706,
        "lon": -152.57467741181884,
        "alt_km": 35787.06456874218,
        "timestamp": "2025-12-23T07:45:09.064130+00:00",
        "meta_object_name": "INTELSAT 10-02",
        "meta_object_id": "2004-022A",
        "meta_epoch": "2025-12-22T21:43:12.772416",
        "meta_mean_motion": 1.00271487,
        "meta_eccentricity": 0.0001072,
        "meta_inclination": 0.014,
        "meta_ra_of_asc_node": 63.3952,
        "meta_arg_of_pericenter": 245.9511,
        "meta_mean_anomaly": 107.2016,
        "meta_ephemeris_type": 0,
        "meta_classification_type": "U",
        "meta_norad_cat_id": 28358,
        "meta_element_set_no": 999,
        "meta_rev_at_epoch": 7878,
        "meta_bstar": 0,
        "meta_mean_motion_dot": 1.1e-07,
        "meta_mean_motion_ddot": 0,
        "tle_line1": "1 28358U 04022A   25356.90500894  .00000011  00000+0  00000+0 0  9990",
        "tle_line2": "2 28358   0.0140  63.3952 0001072 245.9511 107.2016  1.00271487 78785"
      },
      "geometry": {
        "type": "Point",
        "coordinates": [
          -152.57467741181884,
          0.00550330151139706
        ]
      }
    },
    {
      "type": "Feature",
      "properties": {
        "norad_id": 28626,
        "name": "XM-3 (RHYTHM)",
        "group": "intelsat",
        "lat": -0.05925309415643546,
        "lon": -87.64052714315308,
        "alt_km": 36160.17480815446,
        "timestamp": "2025-12-23T07:45:09.064143+00:00",
        "meta_object_name": "XM-3 (RHYTHM)",
        "meta_object_id": "2005-008A",
        "meta_epoch": "2025-12-22T22:02:18.444192",
        "meta_mean_motion": 0.98949886,
        "meta_eccentricity": 0.00020576,
        "meta_inclination": 0.1994,
        "meta_ra_of_asc_node": 82.0954,
        "meta_arg_of_pericenter": 276.3831,
        "meta_mean_anomaly": 129.7274,
        "meta_ephemeris_type": 0,
        "meta_classification_type": "U",
        "meta_norad_cat_id": 28626,
        "meta_element_set_no": 999,
        "meta_rev_at_epoch": 4085,
        "meta_bstar": 0,
        "meta_mean_motion_dot": 9.7e-07,
        "meta_mean_motion_ddot": 0,
        "tle_line1": "1 28626U 05008A   25356.91826903  .00000097  00000+0  00000+0 0  9990",
        "tle_line2": "2 28626   0.1994  82.0954 0002057 276.3831 129.7274  0.98949886 40851"
      },
      "geometry": {
        "type": "Point",
        "coordinates": [
          -87.64052714315308,
          -0.05925309415643546
        ]
      }
    },
    {
      "type": "Feature",
      "properties": {
        "norad_id": 28659,
        "name": "DIRECTV 8",
        "group": "intelsat",
        "lat": 0.041098118099816235,
        "lon": 89.36098637029234,
        "alt_km": 35798.241288174344,
        "timestamp": "2025-12-23T07:45:09.064155+00:00",
        "meta_object_name": "DIRECTV 8",
        "meta_object_id": "2005-019A",
        "meta_epoch": "2025-12-22T21:09:31.000320",
        "meta_mean_motion": 1.00271524,
        "meta_eccentricity": 0.00029245,
        "meta_inclination": 0.0181,
        "meta_ra_of_asc_node": 18.4024,
        "meta_arg_of_pericenter": 263.1502,
        "meta_mean_anomaly": 8.4647,
        "meta_ephemeris_type": 0,
        "meta_classification_type": "U",
        "meta_norad_cat_id": 28659,
        "meta_element_set_no": 999,
        "meta_rev_at_epoch": 7530,
        "meta_bstar": 0,
        "meta_mean_motion_dot": 2.2e-07,
        "meta_mean_motion_ddot": 0,
        "tle_line1": "1 28659U 05019A   25356.88160880  .00000022  00000+0  00000+0 0  9997",
        "tle_line2": "2 28659   0.0181  18.4024 0002924 263.1502   8.4647  1.00271524 75303"
      },
      "geometry": {
        "type": "Point",
        "coordinates": [
          89.36098637029234,
          0.041098118099816235
        ]
      }
    },
    {
      "type": "Feature",
      "properties": {
        "norad_id": 28702,
        "name": "GALAXY 28 (G-28)",
        "group": "intelsat",
        "lat": 1.7961328138690886,
        "lon": 119.65596268330762,
        "alt_km": 35797.57647798343,
        "timestamp": "2025-12-23T07:45:09.064167+00:00",
        "meta_object_name": "GALAXY 28 (G-28)",
        "meta_object_id": "2005-022A",
        "meta_epoch": "2025-12-20T00:49:30.482112",
        "meta_mean_motion": 1.00271047,
        "meta_eccentricity": 0.00029384,
        "meta_inclination": 2.8382,
        "meta_ra_of_asc_node": 81.1982,
        "meta_arg_of_pericenter": 194.0723,
        "meta_mean_anomaly": 97.2981,
        "meta_ephemeris_type": 0,
        "meta_classification_type": "U",
        "meta_norad_cat_id": 28702,
        "meta_element_set_no": 999,
        "meta_rev_at_epoch": 5017,
        "meta_bstar": 0,
        "meta_mean_motion_dot": -1.65e-06,
        "meta_mean_motion_ddot": 0,
        "tle_line1": "1 28702U 05022A   25354.03438058 -.00000165  00000+0  00000+0 0  9999",
        "tle_line2": "2 28702   2.8382  81.1982 0002938 194.0723  97.2981  1.00271047 50172"
      },
      "geometry": {
        "type": "Point",
        "coordinates": [
          119.65596268330762,
          1.7961328138690886
        ]
      }
    },
    {
      "type": "Feature",
      "properties": {
        "norad_id": 29236,
        "name": "GALAXY 16 (G-16)",
        "group": "intelsat",
        "lat": -0.003219996270833682,
        "lon": 109.3757962502815,
        "alt_km": 35796.66358912729,
        "timestamp": "2025-12-23T07:45:09.064179+00:00",
        "meta_object_name": "GALAXY 16 (G-16)",
        "meta_object_id": "2006-023A",
        "meta_epoch": "2025-12-22T19:32:17.808864",
        "meta_mean_motion": 1.00270734,
        "meta_eccentricity": 0.00025149,
        "meta_inclination": 0.0081,
        "meta_ra_of_asc_node": 128.8096,
        "meta_arg_of_pericenter": 145.2151,
        "meta_mean_anomaly": 11.6522,
        "meta_ephemeris_type": 0,
        "meta_classification_type": "U",
        "meta_norad_cat_id": 29236,
        "meta_element_set_no": 999,
        "meta_rev_at_epoch": 7120,
        "meta_bstar": 0,
        "meta_mean_motion_dot": -1.05e-06,
        "meta_mean_motion_ddot": 0,
        "tle_line1": "1 29236U 06023A   25356.81409501 -.00000105  00000+0  00000+0 0  9997",
        "tle_line2": "2 29236   0.0081 128.8096 0002514 145.2151  11.6522  1.00270734 71209"
      },
      "geometry": {
        "type": "Point",
        "coordinates": [
          109.3757962502815,
          -0.003219996270833682
        ]
      }
    },
    {
      "type": "Feature",
      "properties": {
        "norad_id": 29494,
        "name": "DIRECTV 9S",
        "group": "intelsat",
        "lat": 0.8261914245773926,
        "lon": 107.17278486573541,
        "alt_km": 35797.832943370406,
        "timestamp": "2025-12-23T07:45:09.064190+00:00",
        "meta_object_name": "DIRECTV 9S",
        "meta_object_id": "2006-043A",
        "meta_epoch": "2025-12-22T14:23:47.349312",
        "meta_mean_motion": 1.00272238,
        "meta_eccentricity": 0.00028786,
        "meta_inclination": 1.964,
        "meta_ra_of_asc_node": 83.1086,
        "meta_arg_of_pericenter": 193.1253,
        "meta_mean_anomaly": 289.9086,
        "meta_ephemeris_type": 0,
        "meta_classification_type": "U",
        "meta_norad_cat_id": 29494,
        "meta_element_set_no": 999,
        "meta_rev_at_epoch": 4961,
        "meta_bstar": 0,
        "meta_mean_motion_dot": -9.3e-07,
        "meta_mean_motion_ddot": 0,
        "tle_line1": "1 29494U 06043A   25356.59985358 -.00000093  00000+0  00000+0 0  9995",
        "tle_line2": "2 29494   1.9640  83.1086 0002878 193.1253 289.9086  1.00272238 49612"
      },
      "geometry": {
        "type": "Point",
        "coordinates": [
          107.17278486573541,
          0.8261914245773926
        ]
      }
    }
  ]
}